FENGYUN 1C DEB          
1 29930U 99025JC  17345.91176267  .00000079  00000-0  52031-4 0  9998
2 29930  99.0015 103.5528 0169320  85.2702  29.8364 14.18474508564355
